{
  "type": "FeatureCollection",
  "features": [
    {
      "type": "Feature",
      "properties": {
        "norad_id": 38250,
        "name": "BEIDOU-2 M3 (C11)",
        "group": "beidou",
        "lat": -4.414420903980016,
        "lon": -52.30812887259511,
        "alt_km": 21516.222457119195,
        "timestamp": "2025-12-26T06:43:29.776755+00:00",
        "meta_object_name": "BEIDOU-2 M3 (C11)",
        "meta_object_id": "2012-018A",
        "meta_epoch": "2025-12-24T03:22:03.617760",
        "meta_mean_motion": 1.86230154,
        "meta_eccentricity": 0.00241099,
        "meta_inclination": 55.9106,
        "meta_ra_of_asc_node": 310.7747,
        "meta_arg_of_pericenter": 275.3713,
        "meta_mean_anomaly": 84.3565,
        "meta_ephemeris_type": 0,
        "meta_classification_type": "U",
        "meta_norad_cat_id": 38250,
        "meta_element_set_no": 999,
        "meta_rev_at_epoch": 9268,
        "meta_bstar": 0,
        "meta_mean_motion_dot": -5.3e-07,
        "meta_mean_motion_ddot": 0,
        "tle_line1": "1 38250U 12018A   25358.14031965 -.00000053  00000+0  00000+0 0  9999",
        "tle_line2": "2 38250  55.9106 310.7747 0024109 275.3713  84.3565  1.86230154 92685"
      },
      "geometry": {
        "type": "Point",
        "coordinates": [
          -52.30812887259511,
          -4.414420903980016
        ]
      }
    },
    {
      "type": "Feature",
      "properties": {
        "norad_id": 38251,
        "name": "BEIDOU-2 M4 (C12)",
        "group": "beidou",
        "lat": 32.26336138157967,
        "lon": -24.69991928930953,
        "alt_km": 21544.528205750048,
        "timestamp": "2025-12-26T06:43:29.776766+00:00",
        "meta_object_name": "BEIDOU-2 M4 (C12)",
        "meta_object_id": "2012-018B",
        "meta_epoch": "2025-12-25T03:30:42.765120",
        "meta_mean_motion": 1.86229477,
        "meta_eccentricity": 0.00149056,
        "meta_inclination": 55.8105,
        "meta_ra_of_asc_node": 309.9689,
        "meta_arg_of_pericenter": 280.9074,
        "meta_mean_anomaly": 78.9304,
        "meta_ephemeris_type": 0,
        "meta_classification_type": "U",
        "meta_norad_cat_id": 38251,
        "meta_element_set_no": 999,
        "meta_rev_at_epoch": 9270,
        "meta_bstar": 0,
        "meta_mean_motion_dot": -5.3e-07,
        "meta_mean_motion_ddot": 0,
        "tle_line1": "1 38251U 12018B   25359.14632830 -.00000053  00000+0  00000+0 0  9999",
        "tle_line2": "2 38251  55.8105 309.9689 0014905 280.9074  78.9304  1.86229477 92703"
      },
      "geometry": {
        "type": "Point",
        "coordinates": [
          -24.69991928930953,
          32.26336138157967
        ]
      }
    },
    {
      "type": "Feature",
      "properties": {
        "norad_id": 38775,
        "name": "BEIDOU-2 M6 (C14)",
        "group": "beidou",
        "lat": -42.34073758186665,
        "lon": -74.11366612014238,
        "alt_km": 21543.650836997498,
        "timestamp": "2025-12-26T06:43:29.776778+00:00",
        "meta_object_name": "BEIDOU-2 M6 (C14)",
        "meta_object_id": "2012-050B",
        "meta_epoch": "2025-12-24T07:41:05.368128",
        "meta_mean_motion": 1.86230801,
        "meta_eccentricity": 0.00114872,
        "meta_inclination": 56.388,
        "meta_ra_of_asc_node": 68.6832,
        "meta_arg_of_pericenter": 343.1884,
        "meta_mean_anomaly": 16.8281,
        "meta_ephemeris_type": 0,
        "meta_classification_type": "U",
        "meta_norad_cat_id": 38775,
        "meta_element_set_no": 999,
        "meta_rev_at_epoch": 9005,
        "meta_bstar": 0,
        "meta_mean_motion_dot": -2.4e-07,
        "meta_mean_motion_ddot": 0,
        "tle_line1": "1 38775U 12050B   25358.32020102 -.00000024  00000+0  00000+0 0  9996",
        "tle_line2": "2 38775  56.3880  68.6832 0011487 343.1884  16.8281  1.86230801 90056"
      },
      "geometry": {
        "type": "Point",
        "coordinates": [
          -74.11366612014238,
          -42.34073758186665
        ]
      }
    },
    {
      "type": "Feature",
      "properties": {
        "norad_id": 38953,
        "name": "BEIDOU-2 G6 (C02)",
        "group": "beidou",
        "lat": -1.6604867196582218,
        "lon": -80.29869866997551,
        "alt_km": 35785.22686561233,
        "timestamp": "2025-12-26T06:43:29.776789+00:00",
        "meta_object_name": "BEIDOU-2 G6 (C02)",
        "meta_object_id": "2012-059A",
        "meta_epoch": "2025-12-25T19:23:21.831648",
        "meta_mean_motion": 1.00274917,
        "meta_eccentricity": 0.00079696,
        "meta_inclination": 3.9805,
        "meta_ra_of_asc_node": 75.3821,
        "meta_arg_of_pericenter": 293.9957,
        "meta_mean_anomaly": 99.9659,
        "meta_ephemeris_type": 0,
        "meta_classification_type": "U",
        "meta_norad_cat_id": 38953,
        "meta_element_set_no": 999,
        "meta_rev_at_epoch": 4817,
        "meta_bstar": 0,
        "meta_mean_motion_dot": -1.55e-06,
        "meta_mean_motion_ddot": 0,
        "tle_line1": "1 38953U 12059A   25359.80789157 -.00000155  00000+0  00000+0 0  9994",
        "tle_line2": "2 38953   3.9805  75.3821 0007969 293.9957  99.9659  1.00274917 48174"
      },
      "geometry": {
        "type": "Point",
        "coordinates": [
          -80.29869866997551,
          -1.6604867196582218
        ]
      }
    },
    {
      "type": "Feature",
      "properties": {
        "norad_id": 40549,
        "name": "BEIDOU-3S IGSO-1S (C31)",
        "group": "beidou",
        "lat": -5.0768966056560805,
        "lon": -66.81535145637132,
        "alt_km": 35926.22263334237,
        "timestamp": "2025-12-26T06:43:29.776803+00:00",
        "meta_object_name": "BEIDOU-3S IGSO-1S (C31)",
        "meta_object_id": "2015-019A",
        "meta_epoch": "2025-12-25T18:51:43.024032",
        "meta_mean_motion": 1.00290186,
        "meta_eccentricity": 0.00365496,
        "meta_inclination": 49.5274,
        "meta_ra_of_asc_node": 297.5574,
        "meta_arg_of_pericenter": 194.2723,
        "meta_mean_anomaly": 340.4455,
        "meta_ephemeris_type": 0,
        "meta_classification_type": "U",
        "meta_norad_cat_id": 40549,
        "meta_element_set_no": 999,
        "meta_rev_at_epoch": 3933,
        "meta_bstar": 0,
        "meta_mean_motion_dot": -1.76e-06,
        "meta_mean_motion_ddot": 0,
        "tle_line1": "1 40549U 15019A   25359.78591463 -.00000176  00000+0  00000+0 0  9998",
        "tle_line2": "2 40549  49.5274 297.5574 0036549 194.2723 340.4455  1.00290186 39339"
      },
      "geometry": {
        "type": "Point",
        "coordinates": [
          -66.81535145637132,
          -5.0768966056560805
        ]
      }
    },
    {
      "type": "Feature",
      "properties": {
        "norad_id": 40748,
        "name": "BEIDOU-3S M2S (C58)",
        "group": "beidou",
        "lat": -54.36142295775878,
        "lon": -154.77567118605054,
        "alt_km": 21501.466789625625,
        "timestamp": "2025-12-26T06:43:29.776817+00:00",
        "meta_object_name": "BEIDOU-3S M2S (C58)",
        "meta_object_id": "2015-037A",
        "meta_epoch": "2025-12-24T19:32:44.901312",
        "meta_mean_motion": 1.86229543,
        "meta_eccentricity": 0.00118109,
        "meta_inclination": 55.028,
        "meta_ra_of_asc_node": 308.0499,
        "meta_arg_of_pericenter": 271.2412,
        "meta_mean_anomaly": 88.6304,
        "meta_ephemeris_type": 0,
        "meta_classification_type": "U",
        "meta_norad_cat_id": 40748,
        "meta_element_set_no": 999,
        "meta_rev_at_epoch": 7087,
        "meta_bstar": 0,
        "meta_mean_motion_dot": -5.3e-07,
        "meta_mean_motion_ddot": 0,
        "tle_line1": "1 40748U 15037A   25358.81440858 -.00000053  00000+0  00000+0 0  9997",
        "tle_line2": "2 40748  55.0280 308.0499 0011810 271.2412  88.6304  1.86229543 70879"
      },
      "geometry": {
        "type": "Point",
        "coordinates": [
          -154.77567118605054,
          -54.36142295775878
        ]
      }
    },
    {
      "type": "Feature",
      "properties": {
        "norad_id": 40749,
        "name": "BEIDOU-3S M1S (C57)",
        "group": "beidou",
        "lat": 50.50066170744222,
        "lon": 69.93521451993172,
        "alt_km": 21522.892014789224,
        "timestamp": "2025-12-26T06:43:29.776828+00:00",
        "meta_object_name": "BEIDOU-3S M1S (C57)",
        "meta_object_id": "2015-037B",
        "meta_epoch": "2025-12-25T01:01:53.071104",
        "meta_mean_motion": 1.86253893,
        "meta_eccentricity": 0.00036899,
        "meta_inclination": 55.0241,
        "meta_ra_of_asc_node": 308.031,
        "meta_arg_of_pericenter": 2.2616,
        "meta_mean_anomaly": 357.7473,
        "meta_ephemeris_type": 0,
        "meta_classification_type": "U",
        "meta_norad_cat_id": 40749,
        "meta_element_set_no": 999,
        "meta_rev_at_epoch": 7088,
        "meta_bstar": 0,
        "meta_mean_motion_dot": -5.3e-07,
        "meta_mean_motion_ddot": 0,
        "tle_line1": "1 40749U 15037B   25359.04297536 -.00000053  00000+0  00000+0 0  9997",
        "tle_line2": "2 40749  55.0241 308.0310 0003689   2.2616 357.7473  1.86253893 70885"
      },
      "geometry": {
        "type": "Point",
        "coordinates": [
          69.93521451993172,
          50.50066170744222
        ]
      }
    }
  ]
}